#cP2012 12  6  0  0  0.00000000     288 u+U   IGb08 FIT  TUM
## 1717 345600.00000000   300.00000000 56267 0.0000000000000
+    3   J01E11E12  0  0  0  0  0  0  0  0  0  0  0  0  0  0
+          0  0  0  0  0  0  0  0  0  0  0  0  0  0  0  0  0
+          0  0  0  0  0  0  0  0  0  0  0  0  0  0  0  0  0
+          0  0  0  0  0  0  0  0  0  0  0  0  0  0  0  0  0
+          0  0  0  0  0  0  0  0  0  0  0  0  0  0  0  0  0
++         5  1  1  0  0  0  0  0  0  0  0  0  0  0  0  0  0
++         0  0  0  0  0  0  0  0  0  0  0  0  0  0  0  0  0
++         0  0  0  0  0  0  0  0  0  0  0  0  0  0  0  0  0
++         0  0  0  0  0  0  0  0  0  0  0  0  0  0  0  0  0
++         0  0  0  0  0  0  0  0  0  0  0  0  0  0  0  0  0
%c E  cc GPS ccc cccc cccc cccc cccc ccccc ccccc ccccc ccccc
%c cc cc ccc ccc cccc cccc cccc cccc ccccc ccccc ccccc ccccc
%f  1.2500000  1.025000000  0.00000000000  0.000000000000000
%f  0.0000000  0.000000000  0.00000000000  0.000000000000000
%i    0    0    0    0      0      0      0      0         0
%i    0    0    0    0      0      0      0      0         0
/* Galileo+QZSS orbits for MGEX based on CONGO+MGEX data    
/* Technische Universitaet Muenchen (TUM)                   
/* Further information: www.iapg.bv.tum.de/mgex             
/* PCV:IGS08_1645 OL/AL:FES2004  NONE     YN ORB:CoN CLK:CoN
*  2012 12  6 20  0  0.00000000
PJ01 -33323.133588  20533.675756 -10997.671265    352.018000
PE11 -10538.794924 -18812.480218  20275.081726   -111.742895
PE12   1265.167858 -28752.505622   6913.313932    670.713375
*  2012 12  6 20  5  0.00000000
PJ01 -33449.865864  20739.908125 -10446.835425    352.017897
PE11 -10424.358401 -19404.100639  19770.494265   -111.718154
PE12   1292.201889 -28945.943931   6046.451840    670.738875
*  2012 12  6 20 10  0.00000000
PJ01 -33565.717799  20950.354376  -9890.448498    352.017700
PE11 -10326.095835 -19982.816461  19238.555553   -111.693437
PE12   1310.153453 -29114.170584   5171.224051    670.764369
*  2012 12  6 20 15  0.00000000
PJ01 -33670.592339  21164.577550  -9328.830835    352.017471
PE11 -10243.504709 -20547.407218  18680.001459   -111.668701
PE12   1320.121051 -29256.659486   4288.841413    670.789858
*  2012 12  6 20 20  0.00000000
PJ01 -33764.412971  21382.137925  -8762.302829    352.017337
PE11 -10176.015715 -21096.688677  18095.604673   -111.643976
PE12   1323.231855 -29372.956561   3400.524701    670.815335
*  2012 12  6 20 25  0.00000000
PJ01 -33847.123693  21602.593931  -8191.184682    352.017185
PE11 -10122.994935 -21629.516788  17486.173639   -111.619245
PE12   1320.637503 -29462.681322   2507.502927    670.840830
*  2012 12  6 20 30  0.00000000
PJ01 -33918.688933  21825.503055  -7615.796180    352.016960
PE11 -10083.746266 -22144.791487  16852.551443   -111.594540
PE12   1313.509810 -29525.528197   1611.011646    670.866349
*  2012 12  6 20 35  0.00000000
PJ01 -33979.093437  22050.422742  -7036.456464    352.016841
PE11 -10057.514044 -22641.460367  16195.614640   -111.569814
PE12   1303.036401 -29561.267597    712.291231    670.891829
*  2012 12  6 20 40  0.00000000
PJ01 -34028.342110  22276.911275  -6453.483829    352.016688
PE11 -10043.485902 -23118.522167  15516.272050   -111.545114
PE12   1290.416300 -29569.746719   -187.414835    670.917319
*  2012 12  6 20 45  0.00000000
PJ01 -34066.459828  22504.528659  -5867.195505    352.016468
PE11 -10040.795807 -23575.030103  14815.463490   -111.520381
PE12   1276.855469 -29550.890086  -1086.861693    670.942809
*  2012 12  6 20 50  0.00000000
PJ01 -34093.491200  22732.837471  -5277.907474    352.016298
PE11 -10048.527300 -24010.094991  14094.158487   -111.495657
PE12   1263.562327 -29504.699825  -1984.804821    670.968312
*  2012 12  6 20 55  0.00000000
PJ01 -34109.500304  22961.403715  -4685.934264    352.016168
PE11 -10065.716913 -24422.888199  13353.354924   -111.470927
PE12   1251.743262 -29431.255673  -2880.001773    670.993842
*  2012 12  6 21  0  0.00000000
PJ01 -34114.570384  23189.797638  -4091.588784    352.015970
PE11 -10091.357747 -24812.644369  12594.077670   -111.446181
PE12   1242.598145 -29330.714720  -3771.213890    671.019349
*  2012 12  6 21  5  0.00000000
PJ01 -34108.803512  23417.594545  -3495.182134    352.015809
PE11 -10124.403209 -25178.663932  11817.377154   -111.421450
PE12   1237.315876 -29203.310884  -4657.208024    671.044886
*  2012 12  6 21 10  0.00000000
PJ01 -34092.320220  23644.375583  -2897.023449    352.015686
PE11 -10163.770887 -25520.315396  11024.327912   -111.396742
PE12   1237.069958 -29049.354118  -5536.758248    671.070405
*  2012 12  6 21 15  0.00000000
PJ01 -34065.259100  23869.728510  -2297.419734    352.015512
PE11 -10208.346558 -25837.037393  10216.027107   -111.372025
PE12   1243.014134 -28869.229370  -6408.647547    671.095919
*  2012 12  6 21 20  0.00000000
PJ01 -34027.776368  24093.248440  -1696.675712    352.015331
PE11 -10256.988300 -26128.340501   9393.592998   -111.347274
PE12   1256.278087 -28663.395260  -7271.669516    671.121463
*  2012 12  6 21 25  0.00000000
PJ01 -33980.045413  24314.538558  -1095.093684    352.015206
PE11 -10308.530713 -26393.808796   8558.163404   -111.322572
PE12   1277.963229 -28432.382536  -8124.630024    671.146941
*  2012 12  6 21 30  0.00000000
PJ01 -33922.256301  24533.210822   -492.973385    352.015033
PE11 -10361.789215 -26633.101172   7710.894117   -111.297853
PE12   1309.138586 -28176.792248  -8966.348876    671.172488
*  2012 12  6 21 35  0.00000000
PJ01 -33854.615272  24748.886623    109.388139    352.014838
PE11 -10415.564410 -26845.952390   6852.957312   -111.273129
PE12   1350.836804 -27897.293713  -9795.661441    671.197986
*  2012 12  6 21 40  0.00000000
PJ01 -33777.344194  24961.197444    711.696662    352.014710
PE11 -10468.646518 -27032.173871   5985.539913   -111.248375
PE12   1404.050271 -27594.622216 -10611.420273    671.223525
*  2012 12  6 21 45  0.00000000
PJ01 -33690.680009  25169.785459   1313.660885    352.014565
PE11 -10519.819832 -27191.654222   5109.841961   -111.223681
PE12   1469.727389 -27269.576513 -11412.496693    671.249048
*  2012 12  6 21 50  0.00000000
PJ01 -33594.874148  25374.304129   1914.992553    352.014381
PE11 -10567.867198 -27324.359505   4227.074939   -111.198893
PE12   1548.769003 -26923.016091 -12197.782364    671.274561
*  2012 12  6 21 55  0.00000000
PJ01 -33490.191930  25574.418764   2515.406558    352.014205
PE11 -10611.574512 -27430.333226   3338.460103   -111.174235
PE12   1642.024984 -26555.858238 -12966.190816    671.300072
*  2012 12  6 22  0  0.00000000
PJ01 -33376.911940  25769.807045   3114.621023    352.014107
PE11 -10649.735199 -27509.696065   2445.226789   -111.149433
PE12   1750.291005 -26169.074909 -13716.658950    671.325603
*  2012 12  6 22  5  0.00000000
PJ01 -33255.325397  25960.159526   3712.357421    352.013846
PE11 -10681.154669 -27562.645345   1548.610703   -111.124772
PE12   1874.305502 -25763.689399 -14448.148524    671.351109
*  2012 12  6 22 10  0.00000000
PJ01 -33125.735489  26145.180110   4308.340614    352.013589
PE11 -10704.654738 -27589.454222    649.852223   -111.099995
PE12   2014.746836 -25340.772859 -15159.647568    671.376635
*  2012 12  6 22 15  0.00000000
PJ01 -32988.456718  26324.586476   4902.298977    352.013524
PE11 -10719.077984 -27590.470637   -249.805335   -111.075286
PE12   2172.230665 -24901.440623 -15850.171806    671.402148
*  2012 12  6 22 20  0.00000000
PJ01 -32843.814209  26498.110495   5493.964441    352.013369
PE11 -10723.292040 -27566.115983  -1149.117427   -111.050537
PE12   2347.307534 -24446.848412 -16518.766004    671.427674
*  2012 12  6 22 25  0.00000000
PJ01 -32692.143021  26665.498607   6083.072576    352.013185
PE11 -10716.193802 -27516.883547  -2046.840012   -111.025838
PE12   2540.460701 -23978.188377 -17164.505298    671.453222
*  2012 12  6 22 30  0.00000000
PJ01 -32533.787449  26826.512155   6669.362639    352.013074
PE11 -10696.713522 -27443.336682  -2941.731270   -111.001012
PE12   2752.104198 -23496.685041 -17786.496469    671.478759
*  2012 12  6 22 35  0.00000000
PJ01 -32369.100302  26980.927715   7252.577643    352.012985
PE11 -10663.818811 -27346.106755  -3832.553326   -110.976289
PE12   2982.581121 -23003.591111 -18383.879182    671.504298
*  2012 12  6 22 40  0.00000000
PJ01 -32198.442195  27128.537361   7832.464403    352.012788
PE11 -10616.518482 -27225.890853  -4718.073964   -110.951543
PE12   3232.162195 -22500.183212 -18955.827174    671.529825
*  2012 12  6 22 45  0.00000000
PJ01 -32022.180820  27269.148926   8408.773578    352.012665
PE11 -10553.866280 -27083.449263  -5597.068325   -110.926798
PE12   3501.044566 -21987.757539 -19501.549390    671.555350
*  2012 12  6 22 50  0.00000000
PJ01 -31840.690213  27402.586218   8981.259724    352.012560
PE11 -10474.964439 -26919.602742  -6468.320616   -110.902043
PE12   3789.350869 -21467.625431 -20020.291087    671.580875
*  2012 12  6 22 55  0.00000000
PJ01 -31654.350033  27528.689197   9549.681321    352.012384
PE11 -10378.967066 -26735.229574  -7330.625781   -110.877315
PE12   4097.128555 -20941.108916 -20511.334865    671.606395
*  2012 12  6 23  0  0.00000000
PJ01 -31463.544812  27647.314147  10113.800815    352.012238
PE11 -10265.083369 -26531.262431  -8182.791179   -110.852544
PE12   4424.349476 -20409.536210 -20974.001666    671.631953
*  2012 12  6 23  5  0.00000000
PJ01 -31268.663235  27758.333784  10673.384640    352.012164
PE11 -10132.580663 -26308.685054  -9023.638220   -110.827822
PE12   4770.909739 -19874.237204 -21407.651703    671.657455
*  2012 12  6 23 10  0.00000000
PJ01 -31070.097393  27861.637358  11228.203254    352.011975
PE11  -9980.787199 -26068.528750  -9852.004017   -110.803036
PE12   5136.629832 -19336.538938 -21811.685354    671.682998
*  2012 12  6 23 15  0.00000000
PJ01 -30868.242059  27957.130715  11778.031146    352.011792
PE11  -9809.094770 -25811.868737 -10666.742971   -110.778304
PE12   5521.254999 -18797.761114 -22185.543976    671.708546
EOF
